NORAD_CAT_ID,OBJECT_NAME,OBJECT_TYPE,EPOCH,MEAN_MOTION,ECCENTRICITY,INCLINATION,RA_OF_ASC_NODE,ARG_OF_PERICENTER,MEAN_ANOMALY,BSTAR,MEAN_MOTION_DOT,MEAN_MOTION_DDOT,TLE_LINE0,TLE_LINE1,TLE_LINE2,SEMIMAJOR_AXIS,PERIOD,APOGEE,PERIGEE,DECAYED
52332.0,STARLINK-3831,PAYLOAD,2023-05-16 22:39:09,15.08840387,0.0001319,53.2157,142.8509,85.6895,274.4248,5.0218e-05,5.11e-06,0.0,0 STARLINK-3831,1 52332U 22045B   23136.94385790  .00000511  00000-0  50218-4 0  9995,2 52332  53.2157 142.8509 0001319  85.6895 274.4248 15.08840387 60487,6917.879,95.438,540.657,538.832,0.0
52332.0,STARLINK-3831,PAYLOAD,2023-05-17 17:43:46,15.08842569,0.0001317,53.216,139.2827,85.154,274.9602,7.8083e-05,9.55e-06,0.0,0 STARLINK-3831,1 52332U 22045B   23137.73873471  .00000955  00000-0  78083-4 0  9993,2 52332  53.2160 139.2827 0001317  85.1540 274.9602 15.08842569 60601,6917.873,95.437,540.649,538.826,0.0
52332.0,STARLINK-3831,PAYLOAD,2023-05-18 03:16:05,15.0884171,0.0001305,53.2162,137.4988,85.0546,275.0595,0.00010638,1.406e-05,0.0,0 STARLINK-3831,1 52332U 22045B   23138.13617433  .00001406  00000-0  10638-3 0  9995,2 52332  53.2162 137.4988 0001305  85.0546 275.0595 15.08841710 60669,6917.875,95.437,540.643,538.837,0.0
52332.0,STARLINK-3831,PAYLOAD,2023-05-18 06:26:51,15.08842552,0.0001316,53.2161,136.904,85.1615,274.9527,0.00010916,1.45e-05,0.0,0 STARLINK-3831,1 52332U 22045B   23138.26865347  .00001450  00000-0  10916-3 0  9996,2 52332  53.2161 136.9040 0001316  85.1615 274.9527 15.08842552 60681,6917.873,95.437,540.648,538.827,0.0
52332.0,STARLINK-3831,PAYLOAD,2023-05-19 09:28:25,15.08840744,0.0001318,53.2162,131.8487,86.1788,273.9355,2.9008e-05,1.74e-06,0.0,0 STARLINK-3831,1 52332U 22045B   23139.39473577  .00000174  00000-0  29008-4 0  9996,2 52332  53.2162 131.8487 0001318  86.1788 273.9355 15.08840744 60853,6917.878,95.438,540.655,538.831,0.0
52332.0,STARLINK-3831,PAYLOAD,2023-05-20 15:40:44,15.08842958,0.000134,53.2162,126.1984,86.527,273.5875,6.5002e-05,7.47e-06,0.0,0 STARLINK-3831,1 52332U 22045B   23140.65329385  .00000747  00000-0  65002-4 0  9994,2 52332  53.2162 126.1984 0001340  86.5270 273.5875 15.08842958 61041,6917.871,95.437,540.663,538.809,0.0
52332.0,STARLINK-3831,PAYLOAD,2023-05-21 02:48:34,15.0874937,0.0003941,53.2164,124.1186,4.9115,355.1915,-0.00068089,-0.00011084,0.0,0 STARLINK-3831,1 52332U 22045B   23141.11706285 -.00011084  00000-0 -68089-3 0  9999,2 52332  53.2164 124.1186 0003941   4.9115 355.1915 15.08749370 61110,6918.157,95.443,542.749,537.296,0.0
52332.0,STARLINK-3831,PAYLOAD,2023-05-21 07:34:51,15.08648799,0.0001523,53.2174,123.2274,92.7913,267.3254,-0.0015048,-0.00024032,0.0,0 STARLINK-3831,1 52332U 22045B   23141.31587632 -.00024032  00000-0 -15048-2 0  9997,2 52332  53.2174 123.2274 0001523  92.7913 267.3254 15.08648799 61140,6918.465,95.45,541.384,539.276,0.0
52332.0,STARLINK-3831,PAYLOAD,2023-05-21 12:22:00,15.07924499,0.0003126,53.2173,122.3394,120.2959,239.8342,-0.0075045,-0.0011493,0.0,0 STARLINK-3831,1 52332U 22045B   23141.51528417 -.00114930  00000-0 -75045-2 0  9995,2 52332  53.2173 122.3394 0003126 120.2959 239.8342 15.07924499 61178,6920.68,95.495,544.709,540.382,0.0
52332.0,STARLINK-3831,PAYLOAD,2023-05-21 22:00:00,15.08006404,0.0001521,53.2153,120.5295,94.4405,290.2092,0.0016978,0.00026226,0.0,0 STARLINK-3831,1 52332U 22045B   23141.91667824  .00026226  00000-0  16978-2 0  9993,2 52332  53.2153 120.5295 0001521  94.4405 290.2092 15.08006404 61239,6920.43,95.49,543.347,541.242,0.0
52332.0,STARLINK-3831,PAYLOAD,2023-05-22 00:00:00,15.08027018,0.0001515,53.2154,120.1562,94.2229,23.0727,-0.00071234,-0.00011357,0.0,0 STARLINK-3831,1 52332U 22045B   23142.00001157 -.00011357  00000-0 -71234-3 0  9993,2 52332  53.2154 120.1562 0001515  94.2229  23.0727 15.08027018  1301,6920.366,95.489,543.28,541.183,0.0
52332.0,STARLINK-3831,PAYLOAD,2023-05-22 14:00:01,15.07961569,0.0001299,53.2149,117.5415,90.0053,315.86,0.025002,0.00411593,0.0,0 STARLINK-3831,1 52332U 22045B   23142.58334491  .00411593  00000-0  25002-1 0  9990,2 52332  53.2149 117.5415 0001299  90.0053 315.8600 15.07961569  1309,6920.567,95.493,543.331,541.533,0.0
52332.0,STARLINK-3831,PAYLOAD,2023-05-22 22:00:00,15.08243675,0.0001049,53.2151,116.0462,101.7242,314.8292,0.030019,0.0049889,0.0,0 STARLINK-3831,1 52332U 22045B   23142.91667824  .00498890  00000-0  30019-1 0  9995,2 52332  53.2151 116.0462 0001049 101.7242 314.8292 15.08243675 61383,6919.704,95.475,542.295,540.843,0.0
52332.0,STARLINK-3831,PAYLOAD,2023-05-23 02:31:14,15.08369015,5.78e-05,53.2156,115.2021,58.2387,301.8661,-0.0020289,-0.00032021,0.0,0 STARLINK-3831,1 52332U 22045B   23143.10502386 -.00032021  00000-0 -20289-2 0  9999,2 52332  53.2156 115.2021 0000578  58.2387 301.8661 15.08369015 61419,6919.32,95.467,541.585,540.785,0.0
52332.0,STARLINK-3831,PAYLOAD,2023-05-23 07:17:16,15.0851102,0.000124,53.2168,114.307,88.4502,271.6632,-0.00023679,-4.02e-05,0.0,0 STARLINK-3831,1 52332U 22045B   23143.30366020 -.00004020  00000-0 -23679-3 0  9999,2 52332  53.2168 114.3070 0001240  88.4502 271.6632 15.08511020 61447,6918.886,95.458,541.609,539.893,0.0
52332.0,STARLINK-3831,PAYLOAD,2023-05-23 15:14:09,15.08608503,5.64e-05,53.2168,112.822,137.675,222.4286,0.0010772,0.00016789,0.0,0 STARLINK-3831,1 52332U 22045B   23143.63483045  .00016789  00000-0  10772-2 0  9994,2 52332  53.2168 112.8220 0000564 137.6750 222.4286 15.08608503 61494,6918.588,95.452,540.843,540.063,0.0
52332.0,STARLINK-3831,PAYLOAD,2023-05-23 21:35:47,15.08497956,0.0001059,53.2167,111.6313,91.3037,268.8076,0.0035731,0.00056501,0.0,0 STARLINK-3831,1 52332U 22045B   23143.89985806  .00056501  00000-0  35731-2 0  9992,2 52332  53.2167 111.6313 0001059  91.3037 268.8076 15.08497956 61531,6918.926,95.459,541.524,540.058,0.0
52332.0,STARLINK-3831,PAYLOAD,2023-05-23 23:11:11,15.08504819,0.0001169,53.2166,111.3342,87.4025,272.7101,0.0035719,0.00056493,0.0,0 STARLINK-3831,1 52332U 22045B   23143.96611111  .00056493  00000-0  35719-2 0  9991,2 52332  53.2166 111.3342 0001169  87.4025 272.7101 15.08504819 61545,6918.905,95.459,541.579,539.961,0.0
52332.0,STARLINK-3831,PAYLOAD,2023-05-24 08:43:37,15.08540116,0.0001128,53.2163,109.5505,87.6467,272.4654,0.0034727,0.00054957,0.0,0 STARLINK-3831,1 52332U 22045B   23144.36362764  .00054957  00000-0  34727-2 0  9994,2 52332  53.2163 109.5505 0001128  87.6467 272.4654 15.08540116 61606,6918.797,95.457,541.443,539.882,0.0
52332.0,STARLINK-3831,PAYLOAD,2023-05-26 02:03:45,15.08840641,8.71e-05,53.2168,101.8226,80.7649,279.3441,4.3058e-05,3.98e-06,0.0,0 STARLINK-3831,1 52332U 22045B   23146.08594110  .00000398  00000-0  43058-4 0  9996,2 52332  53.2168 101.8226 0000871  80.7649 279.3441 15.08840641 61860,6917.878,95.438,540.346,539.141,0.0
52332.0,STARLINK-3831,PAYLOAD,2023-05-26 21:08:23,15.08840762,0.0001044,53.2169,98.2552,78.5589,281.5521,1.8247e-05,3e-08,0.0,0 STARLINK-3831,1 52332U 22045B   23146.88082350  .00000003  00000-0  18247-4 0  9997,2 52332  53.2169  98.2552 0001044  78.5589 281.5521 15.08840762 61984,6917.878,95.438,540.465,539.021,0.0
52332.0,STARLINK-3831,PAYLOAD,2023-05-27 03:29:55,15.08839391,0.0001075,53.2168,97.0625,89.4516,270.6599,5.3906e-06,-2.02e-06,0.0,0 STARLINK-3831,1 52332U 22045B   23147.14578388 -.00000202  00000-0  53906-5 0  9992,2 52332  53.2168  97.0625 0001075  89.4516 270.6599 15.08839391 62022,6917.882,95.438,540.491,539.004,0.0
52332.0,STARLINK-3831,PAYLOAD,2023-05-27 13:02:14,15.08837884,0.0001076,53.2167,95.278,89.4399,270.6716,-7.031e-06,-4e-06,0.0,0 STARLINK-3831,1 52332U 22045B   23147.54322528 -.00000400  00000-0 -70310-5 0  9998,2 52332  53.2167  95.2780 0001076  89.4399 270.6716 15.08837884 62085,6917.887,95.438,540.496,539.007,0.0
52332.0,STARLINK-3831,PAYLOAD,2023-05-28 03:20:43,15.08836462,0.0001155,53.217,92.602,89.0757,271.0367,7.3542e-06,-1.71e-06,0.0,0 STARLINK-3831,1 52332U 22045B   23148.13938798 -.00000171  00000-0  73542-5 0  9990,2 52332  53.2170  92.6020 0001155  89.0757 271.0367 15.08836462 62177,6917.891,95.438,540.555,538.957,0.0
52332.0,STARLINK-3831,PAYLOAD,2023-05-29 03:11:29,15.08843341,0.0001126,53.2166,88.1432,100.8013,259.3106,0.00011211,1.497e-05,0.0,0 STARLINK-3831,1 52332U 22045B   23149.13298140  .00001497  00000-0  11211-3 0  9995,2 52332  53.2166  88.1432 0001126 100.8013 259.3106 15.08843341 62325,6917.87,95.437,540.514,538.956,0.0
52332.0,STARLINK-3831,PAYLOAD,2023-05-29 19:05:21,15.08832911,0.0001104,53.2163,85.1705,106.5069,253.6044,6.0669e-05,6.78e-06,0.0,0 STARLINK-3831,1 52332U 22045B   23149.79539019  .00000678  00000-0  60669-4 0  9992,2 52332  53.2163  85.1705 0001104 106.5069 253.6044 15.08832911 62422,6917.902,95.438,540.531,539.003,0.0
52332.0,STARLINK-3831,PAYLOAD,2023-05-30 04:37:40,15.08832387,0.0001045,53.2168,83.3853,98.7294,261.3817,1.6206e-05,-3e-07,0.0,0 STARLINK-3831,1 52332U 22045B   23150.19283458 -.00000030  00000-0  16206-4 0  9992,2 52332  53.2168  83.3853 0001045  98.7294 261.3817 15.08832387 62484,6917.904,95.438,540.492,539.046,0.0
52332.0,STARLINK-3831,PAYLOAD,2023-05-31 04:28:26,15.08853103,0.000101,53.2162,78.9265,106.4856,253.6247,0.00011555,1.552e-05,0.0,0 STARLINK-3831,1 52332U 22045B   23151.18641768  .00001552  00000-0  11555-3 0  9994,2 52332  53.2162  78.9265 0001010 106.4856 253.6247 15.08853103 62635,6917.84,95.437,540.404,539.007,0.0
52332.0,STARLINK-3831,PAYLOAD,2023-06-01 01:08:28,15.08836379,0.0001183,53.218,75.0569,95.9901,264.1226,5.4187e-05,5.75e-06,0.0,0 STARLINK-3831,1 52332U 22045B   23152.04755094  .00000575  00000-0  54187-4 0  9991,2 52332  53.2180  75.0569 0001183  95.9901 264.1226 15.08836379 62768,6917.891,95.438,540.575,538.938,0.0
52332.0,STARLINK-3831,PAYLOAD,2023-06-01 04:19:14,15.08842402,0.000126,53.2178,74.4626,92.8183,267.2954,0.0001096,1.457e-05,0.0,0 STARLINK-3831,1 52332U 22045B   23152.18002561  .00001457  00000-0  10960-3 0  9990,2 52332  53.2178  74.4626 0001260  92.8183 267.2954 15.08842402 62784,6917.873,95.437,540.61,538.866,0.0
